NORAD_CAT_ID,OBJECT_NAME,OBJECT_TYPE,EPOCH,MEAN_MOTION,ECCENTRICITY,INCLINATION,RA_OF_ASC_NODE,ARG_OF_PERICENTER,MEAN_ANOMALY,BSTAR,MEAN_MOTION_DOT,MEAN_MOTION_DDOT,TLE_LINE0,TLE_LINE1,TLE_LINE2,SEMIMAJOR_AXIS,PERIOD,APOGEE,PERIGEE,DECAYED
52483.0,STARLINK-3875,PAYLOAD,2024-05-13 04:52:56,15.0884531,0.0001201,53.215,156.6057,68.5722,291.5398,0.00080659,0.00012574,0.0,0 STARLINK-3875,1 52483U 22049AJ  24134.20342769  .00012574  00000-0  80659-3 0  9996,2 52483  53.2150 156.6057 0001201  68.5722 291.5398 15.08845310112088,6917.864,95.437,540.56,538.898,0.0
52483.0,STARLINK-3875,PAYLOAD,2024-05-13 11:14:28,15.08872409,0.0001096,53.2148,155.4175,90.5709,269.5409,0.0020983,0.00033294,0.0,0 STARLINK-3875,1 52483U 22049AJ  24134.46838257  .00033294  00000-0  20983-2 0  9991,2 52483  53.2148 155.4175 0001096  90.5709 269.5409 15.08872409113207,6917.781,95.436,540.405,538.888,0.0
52483.0,STARLINK-3875,PAYLOAD,2024-05-14 04:43:41,15.08877573,0.0001244,53.2153,152.1422,96.5028,263.6106,0.00075867,0.00011819,0.0,0 STARLINK-3875,1 52483U 22049AJ  24135.19700866  .00011819  00000-0  75867-3 0  9997,2 52483  53.2153 152.1422 0001244  96.5028 263.6106 15.08877573112235,6917.766,95.435,540.491,538.77,0.0
52483.0,STARLINK-3875,PAYLOAD,2024-05-14 07:54:27,15.08845961,0.0001261,53.2153,151.5469,87.011,273.1026,-0.00047741,-7.879e-05,0.0,0 STARLINK-3875,1 52483U 22049AJ  24135.32948857 -.00007879  00000-0 -47741-3 0  9999,2 52483  53.2153 151.5469 0001261  87.0110 273.1026 15.08845961112250,6917.862,95.437,540.6,538.855,0.0
52483.0,STARLINK-3875,PAYLOAD,2024-05-15 06:09:53,15.08820032,0.0001254,53.2159,147.3846,104.5377,255.5754,-0.00021375,-3.686e-05,0.0,0 STARLINK-3875,1 52483U 22049AJ  24136.25686949 -.00003686  00000-0 -21375-3 0  9990,2 52483  53.2159 147.3846 0001254 104.5377 255.5754 15.08820032112399,6917.941,95.439,540.674,538.939,0.0
52483.0,STARLINK-3875,PAYLOAD,2024-05-15 07:45:16,15.08811029,0.00013,53.2158,147.0864,85.9595,274.1546,-0.0003996,-6.637e-05,0.0,0 STARLINK-3875,1 52483U 22049AJ  24136.32311332 -.00006637  00000-0 -39960-3 0  9997,2 52483  53.2158 147.0864 0001300  85.9595 274.1546 15.08811029113484,6917.969,95.439,540.733,538.935,0.0
52483.0,STARLINK-3875,PAYLOAD,2024-05-16 09:11:29,15.08813275,0.0001377,53.2157,142.3319,91.2138,268.9012,0.00021813,3.183e-05,0.0,0 STARLINK-3875,1 52483U 22049AJ  24137.38297789  .00003183  00000-0  21813-3 0  9992,2 52483  53.2157 142.3319 0001377  91.2138 268.9012 15.08813275112565,6917.962,95.439,540.78,538.874,0.0
52483.0,STARLINK-3875,PAYLOAD,2024-05-16 17:08:25,15.0882251,0.0001321,53.2154,140.8442,88.399,271.7153,0.00037527,5.687e-05,0.0,0 STARLINK-3875,1 52483U 22049AJ  24137.71418057  .00005687  00000-0  37527-3 0  9992,2 52483  53.2154 140.8442 0001321  88.3990 271.7153 15.08822510113699,6917.934,95.439,540.713,538.885,0.0
52483.0,STARLINK-3875,PAYLOAD,2024-05-17 04:16:07,15.08830121,0.000131,53.2151,138.763,95.384,264.7301,0.00054525,8.398e-05,0.0,0 STARLINK-3875,1 52483U 22049AJ  24138.17786454  .00008398  00000-0  54525-3 0  9991,2 52483  53.2151 138.7630 0001310  95.3840 264.7301 15.08830121112683,6917.911,95.438,540.682,538.869,0.0
52483.0,STARLINK-3875,PAYLOAD,2024-05-17 09:02:16,15.08843018,0.0001354,53.2151,137.8717,98.267,261.8476,0.00068901,0.00010696,0.0,0 STARLINK-3875,1 52483U 22049AJ  24138.37658358  .00010696  00000-0  68901-3 0  9991,2 52483  53.2151 137.8717 0001354  98.2670 261.8476 15.08843018113793,6917.871,95.437,540.673,538.799,0.0
52483.0,STARLINK-3875,PAYLOAD,2024-05-17 16:59:12,15.0885232,0.0001341,53.2148,136.3845,97.2356,262.8789,0.00072159,0.00011219,0.0,0 STARLINK-3875,1 52483U 22049AJ  24138.70778095  .00011219  00000-0  72159-3 0  9991,2 52483  53.2148 136.3845 0001341  97.2356 262.8789 15.08852320112761,6917.843,95.437,540.635,538.78,0.0
52483.0,STARLINK-3875,PAYLOAD,2024-05-18 08:53:02,15.08865704,0.0001375,53.2146,133.4108,96.7479,263.367,0.00072921,0.00011345,0.0,0 STARLINK-3875,1 52483U 22049AJ  24139.37017310  .00011345  00000-0  72921-3 0  9998,2 52483  53.2146 133.4108 0001375  96.7479 263.3670 15.08865704113942,6917.802,95.436,540.618,538.716,0.0
52483.0,STARLINK-3875,PAYLOAD,2024-05-18 16:49:58,15.08872583,0.0001518,53.2154,131.9201,84.6241,275.4925,0.00071267,0.00011082,0.0,0 STARLINK-3875,1 52483U 22049AJ  24139.70136698  .00011082  00000-0  71267-3 0  9996,2 52483  53.2154 131.9201 0001518  84.6241 275.4925 15.08872583113995,6917.781,95.435,540.696,538.596,0.0
52483.0,STARLINK-3875,PAYLOAD,2024-05-19 03:57:40,15.08836184,0.0001529,53.2149,129.8406,91.6363,268.4804,-0.00044502,-7.363e-05,0.0,0 STARLINK-3875,1 52483U 22049AJ  24140.16505121 -.00007363  00000-0 -44502-3 0  9990,2 52483  53.2149 129.8406 0001529  91.6363 268.4804 15.08836184112980,6917.892,95.438,540.815,538.699,0.0
52483.0,STARLINK-3875,PAYLOAD,2024-05-19 05:33:03,15.08835686,0.0001414,53.2146,129.5431,92.0453,268.0701,-0.00037822,-6.302e-05,0.0,0 STARLINK-3875,1 52483U 22049AJ  24140.23129152 -.00006302  00000-0 -37822-3 0  9993,2 52483  53.2146 129.5431 0001414  92.0453 268.0701 15.08835686114070,6917.894,95.438,540.737,538.78,0.0
52483.0,STARLINK-3875,PAYLOAD,2024-05-20 05:23:50,15.08849591,0.0001396,53.2146,125.0836,86.2841,273.8311,0.00080582,0.00012563,0.0,0 STARLINK-3875,1 52483U 22049AJ  24141.22489395  .00012563  00000-0  80582-3 0  9996,2 52483  53.2146 125.0836 0001396  86.2841 273.8311 15.08849591113143,6917.851,95.437,540.682,538.75,0.0
52483.0,STARLINK-3875,PAYLOAD,2024-05-20 08:34:37,15.08853161,0.0001397,53.2146,124.4888,86.4384,273.6768,0.00080806,0.000126,0.0,0 STARLINK-3875,1 52483U 22049AJ  24141.35737281  .00012600  00000-0  80806-3 0  9991,2 52483  53.2146 124.4888 0001397  86.4384 273.6768 15.08853161114242,6917.84,95.437,540.672,538.739,0.0
52483.0,STARLINK-3875,PAYLOAD,2024-05-21 05:14:37,15.08840419,0.0001471,53.2154,120.6233,84.4314,275.6845,0.00012022,1.626e-05,0.0,0 STARLINK-3875,1 52483U 22049AJ  24142.21849345  .00001626  00000-0  12022-3 0  9993,2 52483  53.2154 120.6233 0001471  84.4314 275.6845 15.08840419113291,6917.879,95.438,540.762,538.726,0.0
52483.0,STARLINK-3875,PAYLOAD,2024-05-21 22:43:52,15.08840209,0.0001532,53.2157,117.3523,82.2855,277.8311,0.00056564,8.726e-05,0.0,0 STARLINK-3875,1 52483U 22049AJ  24142.94713755  .00008726  00000-0  56564-3 0  9995,2 52483  53.2157 117.3523 0001532  82.2855 277.8311 15.08840209114484,6917.88,95.438,540.805,538.685,0.0
52483.0,STARLINK-3875,PAYLOAD,2024-05-22 05:05:25,15.08836497,0.0001439,53.2164,116.1623,91.8799,268.2358,0.00020191,2.927e-05,0.0,0 STARLINK-3875,1 52483U 22049AJ  24143.21209801  .00002927  00000-0  20191-3 0  9992,2 52483  53.2164 116.1623 0001439  91.8799 268.2358 15.08836497113443,6917.891,95.438,540.752,538.761,0.0
52483.0,STARLINK-3875,PAYLOAD,2024-05-23 04:56:12,15.08838423,0.0001386,53.2167,111.7012,99.1683,260.9466,0.00013724,1.897e-05,0.0,0 STARLINK-3875,1 52483U 22049AJ  24144.20569904  .00001897  00000-0  13724-3 0  9994,2 52483  53.2167 111.7012 0001386  99.1683 260.9466 15.08838423114679,6917.885,95.438,540.709,538.791,0.0
52483.0,STARLINK-3875,PAYLOAD,2024-05-24 03:11:36,15.08842478,0.0001363,53.2167,107.5395,103.0603,257.0542,0.00015148,2.124e-05,0.0,0 STARLINK-3875,1 52483U 22049AJ  24145.13305795  .00002124  00000-0  15148-3 0  9999,2 52483  53.2167 107.5395 0001363 103.0603 257.0542 15.08842478113731,6917.873,95.437,540.681,538.795,0.0
52483.0,STARLINK-3875,PAYLOAD,2024-05-24 20:40:50,15.08843369,0.000138,53.2168,104.2697,105.9346,254.1798,0.00013092,1.796e-05,0.0,0 STARLINK-3875,1 52483U 22049AJ  24145.86169679  .00001796  00000-0  13092-3 0  9998,2 52483  53.2168 104.2697 0001380 105.9346 254.1798 15.08843369114928,6917.87,95.437,540.69,538.78,0.0
52483.0,STARLINK-3875,PAYLOAD,2024-05-25 04:37:46,15.08836547,0.0001257,53.2166,102.779,92.4349,267.6787,3.1148e-05,2.08e-06,0.0,0 STARLINK-3875,1 52483U 22049AJ  24146.19290156  .00000208  00000-0  31148-4 0  9990,2 52483  53.2166 102.7790 0001257  92.4349 267.6787 15.08836547113891,6917.891,95.438,540.626,538.886,0.0
52483.0,STARLINK-3875,PAYLOAD,2024-05-25 14:10:05,15.08840025,9.93e-05,53.2171,100.995,91.6029,268.5077,5.9672e-05,6.62e-06,0.0,0 STARLINK-3875,1 52483U 22049AJ  24146.59033964  .00000662  00000-0  59672-4 0  9992,2 52483  53.2171 100.9950 0000993  91.6029 268.5077 15.08840025115033,6917.88,95.438,540.432,539.058,0.0
52483.0,STARLINK-3875,PAYLOAD,2024-05-26 04:28:34,15.08838905,0.0001304,53.2174,98.3258,105.3319,254.7817,6.691e-05,7.77e-06,0.0,0 STARLINK-3875,1 52483U 22049AJ  24147.18650545  .00000777  00000-0  66910-4 0  9998,2 52483  53.2174  98.3258 0001304 105.3319 254.7817 15.08838905115122,6917.884,95.438,540.651,538.847,0.0
52483.0,STARLINK-3875,PAYLOAD,2024-05-26 20:22:25,15.08834793,0.0001294,53.2176,95.3499,79.4933,280.6205,0.00017965,2.572e-05,0.0,0 STARLINK-3875,1 52483U 22049AJ  24147.84890619  .00002572  00000-0  17965-3 0  9999,2 52483  53.2176  95.3499 0001294  79.4933 280.6205 15.08834793114140,6917.896,95.438,540.656,538.866,0.0
52483.0,STARLINK-3875,PAYLOAD,2024-05-27 13:51:39,15.08846314,0.0001329,53.2184,92.0777,88.4188,271.6956,0.00015467,2.175e-05,0.0,0 STARLINK-3875,1 52483U 22049AJ  24148.57754080  .00002175  00000-0  15467-3 0  9995,2 52483  53.2184  92.0777 0001329  88.4188 271.6956 15.08846314115330,6917.861,95.437,540.645,538.807,0.0
52483.0,STARLINK-3875,PAYLOAD,2024-05-28 02:34:44,15.08842221,0.0001308,53.2175,89.6975,98.8696,261.2445,0.00010688,1.414e-05,0.0,0 STARLINK-3875,1 52483U 22049AJ  24149.10746489  .00001414  00000-0  10688-3 0  9994,2 52483  53.2175  89.6975 0001308  98.8696 261.2445 15.08842221114338,6917.874,95.437,540.643,538.834,0.0
52483.0,STARLINK-3875,PAYLOAD,2024-05-29 00:50:08,15.08841284,0.0001278,53.2179,85.5339,106.543,253.5702,6.2081e-05,7e-06,0.0,0 STARLINK-3875,1 52483U 22049AJ  24150.03482486  .00000700  00000-0  62081-4 0  9994,2 52483  53.2179  85.5339 0001278 106.5430 253.5702 15.08841284115553,6917.876,95.437,540.626,538.857,0.0
